SMOS                    
1 36036U 09059A   26189.94163681  .00000164  00000+0  66309-4 0  9993
2 36036  98.4428  16.9579 0001136  94.8218 265.3100 14.39733454876589
SRMSAT                  
1 37841U 11058D   26189.35312844  .00000357  00000+0  50022-4 0  9991
2 37841  19.9723 291.3610 0011878  76.6616 325.6645 14.11579975760817
SPOT 6                  
1 38755U 12047A   26189.94474193 -.00000053  00000+0 -16352-5 0  9990
2 38755  98.2107 256.9982 0001153  81.8254 278.3076 14.58535941736224
SPOT 7                  
1 40053U 14034A   26189.96095081  .00000167  00000+0  43239-4 0  9996
2 40053  98.0615 251.8908 0001533  97.4143 262.7233 14.60977394640315
STRIX-1                 
1 53815U 22113A   26189.94778913  .00016054  00000+0  39353-3 0  9996
2 53815  97.4484 252.3723 0005209 148.3919 211.7641 15.40798790210796
STRIX-3                 
1 59224U 24047A   26189.97492545  .00005397  00000+0  25529-3 0  9999
2 59224  97.6629 165.9772 0012751 357.2756   2.8406 15.19742571128059
STRIX-4                 
1 60352U 24137A   26189.98304633  .00009845  00000+0  30783-3 0  9994
2 60352  43.0142 160.9450 0015742  87.8740 272.3916 15.33179135107365
STRIX-2                 
1 62406U 24248A   26189.95535154  .00004310  00000+0  27501-3 0  9996
2 62406  97.6292 145.4728 0013605 260.0144  99.9549 15.09150417 84873
STRIX-5                 
1 65971U 25229A   26189.94396446  .00001861  00000+0  14219-3 0  9994
2 65971  41.9264 166.7382 0037166 197.4091 162.5462 15.04562325 40253
STRIX-6                 
1 68291U 26056A   26189.44220028  .00001594  00000+0  14643-3 0  9992
2 68291  50.2820 249.3120 0016558 325.3377  34.6492 15.00308954 16461
