{
 "generated_at": "2026-07-09T08:28:01Z",
 "sources": [
  {
   "name": "CelesTrak",
   "url": "https://celestrak.org/NORAD/elements/",
   "license": "frei verfügbar; Attribution. Ursprünglich USSPACECOM/Space-Track."
  },
  {
   "name": "GCAT (J. McDowell, planet4589.org)",
   "url": "https://planet4589.org/space/gcat/",
   "license": "CC-BY 4.0"
  }
 ],
 "satellites": [
  {
   "norad": 36036,
   "name": "SMOS",
   "intl": "2009-059A",
   "group": "resource",
   "gcat": {
    "class": "C",
    "category": "EOSCI",
    "owner": "ESA",
    "state": "I-ESA"
   },
   "omm": {
    "OBJECT_NAME": "SMOS",
    "OBJECT_ID": "2009-059A",
    "EPOCH": "2026-07-08T22:35:57.420384",
    "MEAN_MOTION": 14.39733454,
    "ECCENTRICITY": 0.00011361,
    "INCLINATION": 98.4428,
    "RA_OF_ASC_NODE": 16.9579,
    "ARG_OF_PERICENTER": 94.8218,
    "MEAN_ANOMALY": 265.31,
    "EPHEMERIS_TYPE": 0,
    "CLASSIFICATION_TYPE": "U",
    "NORAD_CAT_ID": 36036,
    "ELEMENT_SET_NO": 999,
    "REV_AT_EPOCH": 87658,
    "BSTAR": 0.000066309277,
    "MEAN_MOTION_DOT": 0.00000164,
    "MEAN_MOTION_DDOT": 0
   }
  },
  {
   "norad": 38755,
   "name": "SPOT 6",
   "intl": "2012-047A",
   "group": "resource",
   "gcat": {
    "class": "B",
    "category": "IMG",
    "owner": "SPOT",
    "state": "F"
   },
   "omm": {
    "OBJECT_NAME": "SPOT 6",
    "OBJECT_ID": "2012-047A",
    "EPOCH": "2026-07-08T22:40:25.702752",
    "MEAN_MOTION": 14.58535941,
    "ECCENTRICITY": 0.00011536,
    "INCLINATION": 98.2107,
    "RA_OF_ASC_NODE": 256.9982,
    "ARG_OF_PERICENTER": 81.8254,
    "MEAN_ANOMALY": 278.3076,
    "EPHEMERIS_TYPE": 0,
    "CLASSIFICATION_TYPE": "U",
    "NORAD_CAT_ID": 38755,
    "ELEMENT_SET_NO": 999,
    "REV_AT_EPOCH": 73622,
    "BSTAR": -0.00000163519,
    "MEAN_MOTION_DOT": -5.3e-7,
    "MEAN_MOTION_DDOT": 0
   }
  },
  {
   "norad": 40053,
   "name": "SPOT 7",
   "intl": "2014-034A",
   "group": "resource",
   "gcat": {
    "class": null,
    "category": null,
    "owner": null,
    "state": null
   },
   "omm": {
    "OBJECT_NAME": "SPOT 7",
    "OBJECT_ID": "2014-034A",
    "EPOCH": "2026-07-08T23:03:46.149984",
    "MEAN_MOTION": 14.60977394,
    "ECCENTRICITY": 0.00015338,
    "INCLINATION": 98.0615,
    "RA_OF_ASC_NODE": 251.8908,
    "ARG_OF_PERICENTER": 97.4143,
    "MEAN_ANOMALY": 262.7233,
    "EPHEMERIS_TYPE": 0,
    "CLASSIFICATION_TYPE": "U",
    "NORAD_CAT_ID": 40053,
    "ELEMENT_SET_NO": 999,
    "REV_AT_EPOCH": 64031,
    "BSTAR": 0.000043238925,
    "MEAN_MOTION_DOT": 0.00000167,
    "MEAN_MOTION_DDOT": 0
   }
  },
  {
   "norad": 37841,
   "name": "SRMSAT",
   "intl": "2011-058D",
   "group": "resource",
   "gcat": {
    "class": "A",
    "category": "TECH",
    "owner": "SRMU",
    "state": "IN"
   },
   "omm": {
    "OBJECT_NAME": "SRMSAT",
    "OBJECT_ID": "2011-058D",
    "EPOCH": "2026-07-08T08:28:30.297216",
    "MEAN_MOTION": 14.11579975,
    "ECCENTRICITY": 0.00118782,
    "INCLINATION": 19.9723,
    "RA_OF_ASC_NODE": 291.361,
    "ARG_OF_PERICENTER": 76.6616,
    "MEAN_ANOMALY": 325.6645,
    "EPHEMERIS_TYPE": 0,
    "CLASSIFICATION_TYPE": "U",
    "NORAD_CAT_ID": 37841,
    "ELEMENT_SET_NO": 999,
    "REV_AT_EPOCH": 76081,
    "BSTAR": 0.000050022429,
    "MEAN_MOTION_DOT": 0.00000357,
    "MEAN_MOTION_DDOT": 0
   }
  },
  {
   "norad": 53815,
   "name": "STRIX-1",
   "intl": "2022-113A",
   "group": "sar",
   "gcat": {
    "class": "B",
    "category": "IMG-R",
    "owner": "SYNSP",
    "state": "J"
   },
   "omm": {
    "OBJECT_NAME": "STRIX-1",
    "OBJECT_ID": "2022-113A",
    "EPOCH": "2026-07-08T22:44:48.980832",
    "MEAN_MOTION": 15.4079879,
    "ECCENTRICITY": 0.00052096,
    "INCLINATION": 97.4484,
    "RA_OF_ASC_NODE": 252.3723,
    "ARG_OF_PERICENTER": 148.3919,
    "MEAN_ANOMALY": 211.7641,
    "EPHEMERIS_TYPE": 0,
    "CLASSIFICATION_TYPE": "U",
    "NORAD_CAT_ID": 53815,
    "ELEMENT_SET_NO": 999,
    "REV_AT_EPOCH": 21079,
    "BSTAR": 0.0003935297,
    "MEAN_MOTION_DOT": 0.00016054,
    "MEAN_MOTION_DDOT": 0
   }
  },
  {
   "norad": 62406,
   "name": "STRIX-2",
   "intl": "2024-248A",
   "group": "sar",
   "gcat": {
    "class": "B",
    "category": "IMG-R",
    "owner": "SYNSP",
    "state": "J"
   },
   "omm": {
    "OBJECT_NAME": "STRIX-2",
    "OBJECT_ID": "2024-248A",
    "EPOCH": "2026-07-08T22:55:42.373056",
    "MEAN_MOTION": 15.09150417,
    "ECCENTRICITY": 0.00136054,
    "INCLINATION": 97.6292,
    "RA_OF_ASC_NODE": 145.4728,
    "ARG_OF_PERICENTER": 260.0144,
    "MEAN_ANOMALY": 99.9549,
    "EPHEMERIS_TYPE": 0,
    "CLASSIFICATION_TYPE": "U",
    "NORAD_CAT_ID": 62406,
    "ELEMENT_SET_NO": 999,
    "REV_AT_EPOCH": 8487,
    "BSTAR": 0.0002750085,
    "MEAN_MOTION_DOT": 0.0000431,
    "MEAN_MOTION_DDOT": 0
   }
  },
  {
   "norad": 59224,
   "name": "STRIX-3",
   "intl": "2024-047A",
   "group": "sar",
   "gcat": {
    "class": "B",
    "category": "IMG-R",
    "owner": "SYNSP",
    "state": "J"
   },
   "omm": {
    "OBJECT_NAME": "STRIX-3",
    "OBJECT_ID": "2024-047A",
    "EPOCH": "2026-07-08T23:23:53.558880",
    "MEAN_MOTION": 15.19742571,
    "ECCENTRICITY": 0.00127512,
    "INCLINATION": 97.6629,
    "RA_OF_ASC_NODE": 165.9772,
    "ARG_OF_PERICENTER": 357.2756,
    "MEAN_ANOMALY": 2.8406,
    "EPHEMERIS_TYPE": 0,
    "CLASSIFICATION_TYPE": "U",
    "NORAD_CAT_ID": 59224,
    "ELEMENT_SET_NO": 999,
    "REV_AT_EPOCH": 12805,
    "BSTAR": 0.00025528768,
    "MEAN_MOTION_DOT": 0.00005397,
    "MEAN_MOTION_DDOT": 0
   }
  },
  {
   "norad": 60352,
   "name": "STRIX-4",
   "intl": "2024-137A",
   "group": "sar",
   "gcat": {
    "class": "B",
    "category": "IMG-R",
    "owner": "SYNSP",
    "state": "J"
   },
   "omm": {
    "OBJECT_NAME": "STRIX-4",
    "OBJECT_ID": "2024-137A",
    "EPOCH": "2026-07-08T23:35:35.202912",
    "MEAN_MOTION": 15.33179135,
    "ECCENTRICITY": 0.00157421,
    "INCLINATION": 43.0142,
    "RA_OF_ASC_NODE": 160.945,
    "ARG_OF_PERICENTER": 87.874,
    "MEAN_ANOMALY": 272.3916,
    "EPHEMERIS_TYPE": 0,
    "CLASSIFICATION_TYPE": "U",
    "NORAD_CAT_ID": 60352,
    "ELEMENT_SET_NO": 999,
    "REV_AT_EPOCH": 10736,
    "BSTAR": 0.00030782706,
    "MEAN_MOTION_DOT": 0.00009845,
    "MEAN_MOTION_DDOT": 0
   }
  },
  {
   "norad": 65971,
   "name": "STRIX-5",
   "intl": "2025-229A",
   "group": "sar",
   "gcat": {
    "class": "B",
    "category": "IMG-R",
    "owner": "SYNSP",
    "state": "J"
   },
   "omm": {
    "OBJECT_NAME": "STRIX-5",
    "OBJECT_ID": "2025-229A",
    "EPOCH": "2026-07-08T22:39:18.529344",
    "MEAN_MOTION": 15.04562325,
    "ECCENTRICITY": 0.00371665,
    "INCLINATION": 41.9264,
    "RA_OF_ASC_NODE": 166.7382,
    "ARG_OF_PERICENTER": 197.4091,
    "MEAN_ANOMALY": 162.5462,
    "EPHEMERIS_TYPE": 0,
    "CLASSIFICATION_TYPE": "U",
    "NORAD_CAT_ID": 65971,
    "ELEMENT_SET_NO": 999,
    "REV_AT_EPOCH": 4025,
    "BSTAR": 0.00014218956,
    "MEAN_MOTION_DOT": 0.00001861,
    "MEAN_MOTION_DDOT": 0
   }
  },
  {
   "norad": 68291,
   "name": "STRIX-6",
   "intl": "2026-056A",
   "group": "sar",
   "gcat": {
    "class": "B",
    "category": "IMG-R",
    "owner": "SYNSP",
    "state": "J"
   },
   "omm": {
    "OBJECT_NAME": "STRIX-6",
    "OBJECT_ID": "2026-056A",
    "EPOCH": "2026-07-08T10:36:46.104192",
    "MEAN_MOTION": 15.00308954,
    "ECCENTRICITY": 0.00165582,
    "INCLINATION": 50.282,
    "RA_OF_ASC_NODE": 249.312,
    "ARG_OF_PERICENTER": 325.3377,
    "MEAN_ANOMALY": 34.6492,
    "EPHEMERIS_TYPE": 0,
    "CLASSIFICATION_TYPE": "U",
    "NORAD_CAT_ID": 68291,
    "ELEMENT_SET_NO": 999,
    "REV_AT_EPOCH": 1646,
    "BSTAR": 0.00014642502,
    "MEAN_MOTION_DOT": 0.00001594,
    "MEAN_MOTION_DDOT": 0
   }
  }
 ]
}
